QIANFAN-9               
1 60387U 24140J   25200.18398634  .00000117  00000+0  16317-3 0  9995
2 60387  88.9847 314.4664 0014386 258.3264 101.6273 13.50953325 47535
QIANFAN-10              
1 60388U 24140K   25200.18814293  .00000113  00000+0  15712-3 0  9994
2 60388  88.9857 313.7999 0013343 232.5249 127.4690 13.50955783 47921
QIANFAN-11              
1 60389U 24140L   25200.22514104  .00000114  00000+0  15752-3 0  9993
2 60389  88.9783 314.4917 0012422 257.4450 102.5312 13.50955883 47426
QIANFAN-12              
1 60390U 24140M   25200.17159444  .00000118  00000+0  16421-3 0  9999
2 60390  88.9826 314.4766 0011140 266.8269  93.1608 13.50955659 47497
QIANFAN-13              
1 60391U 24140N   25200.21687462  .00000120  00000+0  16731-3 0  9998
2 60391  88.9839 314.5537 0010937 269.7884  90.2014 13.50955503 47472
QIANFAN-14              
1 60392U 24140P   25200.16745860  .00000126  00000+0  17680-3 0  9990
2 60392  88.9817 314.4878 0014623 270.3364  89.6111 13.50956577 47475
QIANFAN-15              
1 60393U 24140Q   25200.17578979  .00000113  00000+0  15644-3 0  9991
2 60393  88.9841 314.4088 0010592 253.5268 106.4719 13.50953424 47552
QIANFAN-16              
1 60394U 24140R   25200.16344309  .00000125  00000+0  17561-3 0  9992
2 60394  88.9844 314.5256 0012535 274.7228  85.2492 13.50955699 47507
